[{"OBJECT_NAME":"STARLINK-4532","OBJECT_ID":"2022-097AN","EPOCH":"2026-03-09T12:36:53.688960","MEAN_MOTION":15.08845498,"ECCENTRICITY":0.0001025,"INCLINATION":53.2168,"RA_OF_ASC_NODE":114.8593,"ARG_OF_PERICENTER":73.1914,"MEAN_ANOMALY":286.9191,"EPHEMERIS_TYPE":0,"CLASSIFICATION_TYPE":"U","NORAD_CAT_ID":53424,"ELEMENT_SET_NO":999,"REV_AT_EPOCH":19862,"BSTAR":-0.00020065,"MEAN_MOTION_DOT":-3.48e-5,"MEAN_MOTION_DDOT":0},{"OBJECT_NAME":"MUSAT-2","OBJECT_ID":"2024-043B","EPOCH":"2026-03-09T22:04:01.255008","MEAN_MOTION":15.07177436,"ECCENTRICITY":0.0006495,"INCLINATION":97.8438,"RA_OF_ASC_NODE":205.4399,"ARG_OF_PERICENTER":314.3478,"MEAN_ANOMALY":45.7216,"EPHEMERIS_TYPE":0,"CLASSIFICATION_TYPE":"U","NORAD_CAT_ID":59099,"ELEMENT_SET_NO":999,"REV_AT_EPOCH":11013,"BSTAR":0.00067214198,"MEAN_MOTION_DOT":0.00010059,"MEAN_MOTION_DDOT":0}]
